{
  "type": "FeatureCollection",
  "features": [
    {
      "type": "Feature",
      "properties": {
        "norad_id": 33376,
        "name": "GALAXY 19 (G-19)",
        "group": "intelsat",
        "lat": -0.030115236277257956,
        "lon": -146.40846995474607,
        "alt_km": 35781.20341184924,
        "timestamp": "2025-12-21T14:40:47.578360+00:00",
        "meta_object_name": "GALAXY 19 (G-19)",
        "meta_object_id": "2008-045A",
        "meta_epoch": "2025-12-21T06:31:28.348032",
        "meta_mean_motion": 1.00271314,
        "meta_eccentricity": 0.00025355,
        "meta_inclination": 0.0168,
        "meta_ra_of_asc_node": 317.9619,
        "meta_arg_of_pericenter": 317.7913,
        "meta_mean_anomaly": 175.208,
        "meta_ephemeris_type": 0,
        "meta_classification_type": "U",
        "meta_norad_cat_id": 33376,
        "meta_element_set_no": 999,
        "meta_rev_at_epoch": 6312,
        "meta_bstar": 0,
        "meta_mean_motion_dot": -1.16e-06,
        "meta_mean_motion_ddot": 0,
        "tle_line1": "1 33376U 08045A   25355.27185588 -.00000116  00000+0  00000+0 0  9990",
        "tle_line2": "2 33376   0.0168 317.9619 0002535 317.7913 175.2080  1.00271314 63125"
      },
      "geometry": {
        "type": "Point",
        "coordinates": [
          -146.40846995474607,
          -0.030115236277257956
        ]
      }
    },
    {
      "type": "Feature",
      "properties": {
        "norad_id": 35493,
        "name": "FM-5",
        "group": "intelsat",
        "lat": -0.031316105330386215,
        "lon": -135.4986312765751,
        "alt_km": 35781.8297962352,
        "timestamp": "2025-12-21T14:40:47.578372+00:00",
        "meta_object_name": "FM-5",
        "meta_object_id": "2009-034A",
        "meta_epoch": "2025-12-21T06:38:59.076096",
        "meta_mean_motion": 1.00277485,
        "meta_eccentricity": 0.00010839,
        "meta_inclination": 0.0244,
        "meta_ra_of_asc_node": 288.4385,
        "meta_arg_of_pericenter": 242.331,
        "meta_mean_anomaly": 292.9415,
        "meta_ephemeris_type": 0,
        "meta_classification_type": "U",
        "meta_norad_cat_id": 35493,
        "meta_element_set_no": 999,
        "meta_rev_at_epoch": 4486,
        "meta_bstar": 0,
        "meta_mean_motion_dot": -1.78e-06,
        "meta_mean_motion_ddot": 0,
        "tle_line1": "1 35493U 09034A   25355.27707264 -.00000178  00000+0  00000+0 0  9990",
        "tle_line2": "2 35493   0.0244 288.4385 0001083 242.3310 292.9415  1.00277485 44869"
      },
      "geometry": {
        "type": "Point",
        "coordinates": [
          -135.4986312765751,
          -0.031316105330386215
        ]
      }
    },
    {
      "type": "Feature",
      "properties": {
        "norad_id": 36097,
        "name": "INTELSAT 14 (IS-14)",
        "group": "intelsat",
        "lat": -0.03629494718679404,
        "lon": -94.38335283173384,
        "alt_km": 35776.37649090558,
        "timestamp": "2025-12-21T14:40:47.578384+00:00",
        "meta_object_name": "INTELSAT 14 (IS-14)",
        "meta_object_id": "2009-064A",
        "meta_epoch": "2025-12-21T06:08:09.955392",
        "meta_mean_motion": 1.00270589,
        "meta_eccentricity": 0.00024766,
        "meta_inclination": 0.0106,
        "meta_ra_of_asc_node": 13.222,
        "meta_arg_of_pericenter": 268.4829,
        "meta_mean_anomaly": 215.4218,
        "meta_ephemeris_type": 0,
        "meta_classification_type": "U",
        "meta_norad_cat_id": 36097,
        "meta_element_set_no": 999,
        "meta_rev_at_epoch": 5882,
        "meta_bstar": 0,
        "meta_mean_motion_dot": -2.51e-06,
        "meta_mean_motion_ddot": 0,
        "tle_line1": "1 36097U 09064A   25355.25567078 -.00000251  00000+0  00000+0 0  9991",
        "tle_line2": "2 36097   0.0106  13.2220 0002476 268.4829 215.4218  1.00270589 58820"
      },
      "geometry": {
        "type": "Point",
        "coordinates": [
          -94.38335283173384,
          -0.03629494718679404
        ]
      }
    },
    {
      "type": "Feature",
      "properties": {
        "norad_id": 36106,
        "name": "INTELSAT 15 (IS-15)",
        "group": "intelsat",
        "lat": 0.02941893768760473,
        "lon": 35.803439582095756,
        "alt_km": 35789.90876697792,
        "timestamp": "2025-12-21T14:40:47.578396+00:00",
        "meta_object_name": "INTELSAT 15 (IS-15)",
        "meta_object_id": "2009-067A",
        "meta_epoch": "2025-12-20T23:54:28.168704",
        "meta_mean_motion": 1.00271811,
        "meta_eccentricity": 0.00021624,
        "meta_inclination": 0.0161,
        "meta_ra_of_asc_node": 343.3578,
        "meta_arg_of_pericenter": 298.0159,
        "meta_mean_anomaly": 252.2279,
        "meta_ephemeris_type": 0,
        "meta_classification_type": "U",
        "meta_norad_cat_id": 36106,
        "meta_element_set_no": 999,
        "meta_rev_at_epoch": 3944,
        "meta_bstar": 0,
        "meta_mean_motion_dot": -1.62e-06,
        "meta_mean_motion_ddot": 0,
        "tle_line1": "1 36106U 09067A   25354.99615936 -.00000162  00000+0  00000+0 0  9993",
        "tle_line2": "2 36106   0.0161 343.3578 0002162 298.0159 252.2279  1.00271811 39444"
      },
      "geometry": {
        "type": "Point",
        "coordinates": [
          35.803439582095756,
          0.02941893768760473
        ]
      }
    },
    {
      "type": "Feature",
      "properties": {
        "norad_id": 36131,
        "name": "DIRECTV 12",
        "group": "intelsat",
        "lat": 0.0009791479867267664,
        "lon": -152.09955225266444,
        "alt_km": 35787.64790933255,
        "timestamp": "2025-12-21T14:40:47.578414+00:00",
        "meta_object_name": "DIRECTV 12",
        "meta_object_id": "2009-075A",
        "meta_epoch": "2025-12-20T21:18:05.647104",
        "meta_mean_motion": 1.00270531,
        "meta_eccentricity": 3.37e-05,
        "meta_inclination": 0.0166,
        "meta_ra_of_asc_node": 99.1337,
        "meta_arg_of_pericenter": 257.3135,
        "meta_mean_anomaly": 310.0782,
        "meta_ephemeris_type": 0,
        "meta_classification_type": "U",
        "meta_norad_cat_id": 36131,
        "meta_element_set_no": 999,
        "meta_rev_at_epoch": 4476,
        "meta_bstar": 0,
        "meta_mean_motion_dot": -8e-07,
        "meta_mean_motion_ddot": 0,
        "tle_line1": "1 36131U 09075A   25354.88756536 -.00000080  00000+0  00000+0 0  9999",
        "tle_line2": "2 36131   0.0166  99.1337 0000337 257.3135 310.0782  1.00270531 44761"
      },
      "geometry": {
        "type": "Point",
        "coordinates": [
          -152.09955225266444,
          0.0009791479867267664
        ]
      }
    },
    {
      "type": "Feature",
      "properties": {
        "norad_id": 36397,
        "name": "INTELSAT 16 (IS-16)",
        "group": "intelsat",
        "lat": -0.033121617977289936,
        "lon": -125.58517653895596,
        "alt_km": 35780.10547624674,
        "timestamp": "2025-12-21T14:40:47.578425+00:00",
        "meta_object_name": "INTELSAT 16 (IS-16)",
        "meta_object_id": "2010-006A",
        "meta_epoch": "2025-12-21T05:59:18.303360",
        "meta_mean_motion": 1.00271275,
        "meta_eccentricity": 0.0001825,
        "meta_inclination": 0.0124,
        "meta_ra_of_asc_node": 352.4988,
        "meta_arg_of_pericenter": 279.1643,
        "meta_mean_anomaly": 192.0446,
        "meta_ephemeris_type": 0,
        "meta_classification_type": "U",
        "meta_norad_cat_id": 36397,
        "meta_element_set_no": 999,
        "meta_rev_at_epoch": 5787,
        "meta_bstar": 0,
        "meta_mean_motion_dot": -2.22e-06,
        "meta_mean_motion_ddot": 0,
        "tle_line1": "1 36397U 10006A   25355.24951740 -.00000222  00000+0  00000+0 0  9992",
        "tle_line2": "2 36397   0.0124 352.4988 0001825 279.1643 192.0446  1.00271275 57872"
      },
      "geometry": {
        "type": "Point",
        "coordinates": [
          -125.58517653895596,
          -0.033121617977289936
        ]
      }
    },
    {
      "type": "Feature",
      "properties": {
        "norad_id": 37185,
        "name": "XM-5",
        "group": "intelsat",
        "lat": -0.06348369313205955,
        "lon": -164.55818867828617,
        "alt_km": 35780.19388861265,
        "timestamp": "2025-12-21T14:40:47.578437+00:00",
        "meta_object_name": "XM-5",
        "meta_object_id": "2010-053A",
        "meta_epoch": "2025-12-20T21:14:35.981088",
        "meta_mean_motion": 1.00269291,
        "meta_eccentricity": 0.0002244,
        "meta_inclination": 0.0661,
        "meta_ra_of_asc_node": 270.9496,
        "meta_arg_of_pericenter": 238.8649,
        "meta_mean_anomaly": 143.3591,
        "meta_ephemeris_type": 0,
        "meta_classification_type": "U",
        "meta_norad_cat_id": 37185,
        "meta_element_set_no": 999,
        "meta_rev_at_epoch": 5569,
        "meta_bstar": 0,
        "meta_mean_motion_dot": 0,
        "meta_mean_motion_ddot": 0,
        "tle_line1": "1 37185U 10053A   25354.88513867  .00000000  00000+0  00000+0 0  9996",
        "tle_line2": "2 37185   0.0661 270.9496 0002244 238.8649 143.3591  1.00269291 55699"
      },
      "geometry": {
        "type": "Point",
        "coordinates": [
          -164.55818867828617,
          -0.06348369313205955
        ]
      }
    }
  ]
}